OKEAN-3                 
1 21397U 91039A   25318.40605388  .00005292  00000+0  38187-3 0  9994
2 21397  82.5157  88.4636 0014435   8.4380 351.7086 15.03848903847704
COSMOS 2151             
1 21422U 91042A   25318.79866473  .00003694  00000+0  29794-3 0  9991
2 21422  82.4984 194.4236 0014221  86.7702 273.5148 14.99546898845973
SL-14 R/B               
1 21423U 91042B   25318.75670593  .00000835  00000+0  10302-3 0  9993
2 21423  82.4919 327.9680 0015507 257.7640 102.1838 14.81701843836053
ERS-1                   
1 21574U 91050A   25318.51349255  .00000695  00000+0  23714-3 0  9996
2 21574  98.7923 328.8604 0031961 182.0897 178.0161 14.39333219799169
ARIANE 40 R/B           
1 21610U 91050F   25318.42220652  .00000864  00000+0  27187-3 0  9992
2 21610  98.2208   9.8694 0004216  72.6398 287.5254 14.42778775802370
INTERCOSMOS 25          
1 21819U 91086A   25318.64672729  .00002572  00000+0  50394-3 0  9996
2 21819  82.6081  19.5570 1488261   4.9601 356.4493 12.11604759482751
SL-8 R/B                
1 21876U 92008B   25318.55623987  .00000173  00000+0  16128-3 0  9998
2 21876  82.9282 353.4105 0036153  96.2479  57.4663 13.75950354693587
SL-8 R/B                
1 21938U 92020B   25318.75454087  .00000108  00000+0  96549-4 0  9990
2 21938  82.9312 239.0964 0027629 258.6099 119.9819 13.75522027685335
USA 81                  
1 21949U 92023A   25318.67084498  .00000371  00000+0  13031-3 0  9997
2 21949  85.0108 197.7607 0002583  74.2858 285.8619 14.32312566 78320
COSMOS 2219             
1 22219U 92076A   25318.85335689  .00000102  00000+0  78262-4 0  9997
2 22219  71.0612 258.1228 0017813   7.5543 352.5844 14.14067130702149
SL-16 R/B               
1 22220U 92076B   25318.60833690 -.00000078  00000+0 -14966-4 0  9992
2 22220  71.0004  70.7870 0015301 270.7639 100.6999 14.16835802705537
COSMOS 2221             
1 22236U 92080A   25318.65256737  .00003093  00000+0  27586-3 0  9999
2 22236  82.5070  29.2019 0013780 213.8148 146.2196 14.95609536763595
