CCSDS_OMM_VERS = 2.0
CREATION_DATE  = 
ORIGINATOR     = 

OBJECT_NAME    = OKEAN-3
OBJECT_ID      = 1991-039A
CENTER_NAME    = EARTH
REF_FRAME      = TEME
TIME_SYSTEM    = UTC
MEAN_ELEMENT_THEORY = SGP/SGP4

EPOCH          = 2025-11-14T09:44:43.055232
MEAN_MOTION    = 15.03848903
ECCENTRICITY   = .0014435
INCLINATION    = 82.5157
RA_OF_ASC_NODE = 88.4636
ARG_OF_PERICENTER = 8.4380
MEAN_ANOMALY   = 351.7086

EPHEMERIS_TYPE = 0
CLASSIFICATION_TYPE = U
NORAD_CAT_ID   = 21397
ELEMENT_SET_NO = 999
REV_AT_EPOCH   = 84770
BSTAR          = .38187E-3
MEAN_MOTION_DOT = .5292E-4
MEAN_MOTION_DDOT = 0

CCSDS_OMM_VERS = 2.0
CREATION_DATE  = 
ORIGINATOR     = 

OBJECT_NAME    = COSMOS 2151
OBJECT_ID      = 1991-042A
CENTER_NAME    = EARTH
REF_FRAME      = TEME
TIME_SYSTEM    = UTC
MEAN_ELEMENT_THEORY = SGP/SGP4

EPOCH          = 2025-11-14T19:10:04.632672
MEAN_MOTION    = 14.99546898
ECCENTRICITY   = .0014221
INCLINATION    = 82.4984
RA_OF_ASC_NODE = 194.4236
ARG_OF_PERICENTER = 86.7702
MEAN_ANOMALY   = 273.5148

EPHEMERIS_TYPE = 0
CLASSIFICATION_TYPE = U
NORAD_CAT_ID   = 21422
ELEMENT_SET_NO = 999
REV_AT_EPOCH   = 84597
BSTAR          = .29794E-3
MEAN_MOTION_DOT = .3694E-4
MEAN_MOTION_DDOT = 0

CCSDS_OMM_VERS = 2.0
CREATION_DATE  = 
ORIGINATOR     = 

OBJECT_NAME    = SL-14 R/B
OBJECT_ID      = 1991-042B
CENTER_NAME    = EARTH
REF_FRAME      = TEME
TIME_SYSTEM    = UTC
MEAN_ELEMENT_THEORY = SGP/SGP4

EPOCH          = 2025-11-14T18:09:39.392352
MEAN_MOTION    = 14.81701843
ECCENTRICITY   = .0015507
INCLINATION    = 82.4919
RA_OF_ASC_NODE = 327.9680
ARG_OF_PERICENTER = 257.7640
MEAN_ANOMALY   = 102.1838

EPHEMERIS_TYPE = 0
CLASSIFICATION_TYPE = U
NORAD_CAT_ID   = 21423
ELEMENT_SET_NO = 999
REV_AT_EPOCH   = 83605
BSTAR          = .10302E-3
MEAN_MOTION_DOT = .835E-5
MEAN_MOTION_DDOT = 0

CCSDS_OMM_VERS = 2.0
CREATION_DATE  = 
ORIGINATOR     = 

OBJECT_NAME    = ERS-1
OBJECT_ID      = 1991-050A
CENTER_NAME    = EARTH
REF_FRAME      = TEME
TIME_SYSTEM    = UTC
MEAN_ELEMENT_THEORY = SGP/SGP4

EPOCH          = 2025-11-14T12:19:25.756320
MEAN_MOTION    = 14.39333219
ECCENTRICITY   = .0031961
INCLINATION    = 98.7923
RA_OF_ASC_NODE = 328.8604
ARG_OF_PERICENTER = 182.0897
MEAN_ANOMALY   = 178.0161

EPHEMERIS_TYPE = 0
CLASSIFICATION_TYPE = U
NORAD_CAT_ID   = 21574
ELEMENT_SET_NO = 999
REV_AT_EPOCH   = 79916
BSTAR          = .23714E-3
MEAN_MOTION_DOT = .695E-5
MEAN_MOTION_DDOT = 0

CCSDS_OMM_VERS = 2.0
CREATION_DATE  = 
ORIGINATOR     = 

OBJECT_NAME    = ARIANE 40 R/B
OBJECT_ID      = 1991-050F
CENTER_NAME    = EARTH
REF_FRAME      = TEME
TIME_SYSTEM    = UTC
MEAN_ELEMENT_THEORY = SGP/SGP4

EPOCH          = 2025-11-14T10:07:58.643328
MEAN_MOTION    = 14.42778775
ECCENTRICITY   = .0004216
INCLINATION    = 98.2208
RA_OF_ASC_NODE = 9.8694
ARG_OF_PERICENTER = 72.6398
MEAN_ANOMALY   = 287.5254

EPHEMERIS_TYPE = 0
CLASSIFICATION_TYPE = U
NORAD_CAT_ID   = 21610
ELEMENT_SET_NO = 999
REV_AT_EPOCH   = 80237
BSTAR          = .27187E-3
MEAN_MOTION_DOT = .864E-5
MEAN_MOTION_DDOT = 0

CCSDS_OMM_VERS = 2.0
CREATION_DATE  = 
ORIGINATOR     = 

OBJECT_NAME    = INTERCOSMOS 25
OBJECT_ID      = 1991-086A
CENTER_NAME    = EARTH
REF_FRAME      = TEME
TIME_SYSTEM    = UTC
MEAN_ELEMENT_THEORY = SGP/SGP4

EPOCH          = 2025-11-14T15:31:17.237856
MEAN_MOTION    = 12.11604759
ECCENTRICITY   = .1488261
INCLINATION    = 82.6081
RA_OF_ASC_NODE = 19.5570
ARG_OF_PERICENTER = 4.9601
MEAN_ANOMALY   = 356.4493

EPHEMERIS_TYPE = 0
CLASSIFICATION_TYPE = U
NORAD_CAT_ID   = 21819
ELEMENT_SET_NO = 999
REV_AT_EPOCH   = 48275
BSTAR          = .50394E-3
MEAN_MOTION_DOT = .2572E-4
MEAN_MOTION_DDOT = 0

CCSDS_OMM_VERS = 2.0
CREATION_DATE  = 
ORIGINATOR     = 

OBJECT_NAME    = SL-8 R/B
OBJECT_ID      = 1992-008B
CENTER_NAME    = EARTH
REF_FRAME      = TEME
TIME_SYSTEM    = UTC
MEAN_ELEMENT_THEORY = SGP/SGP4

EPOCH          = 2025-11-14T13:20:59.124768
MEAN_MOTION    = 13.75950354
ECCENTRICITY   = .0036153
INCLINATION    = 82.9282
RA_OF_ASC_NODE = 353.4105
ARG_OF_PERICENTER = 96.2479
MEAN_ANOMALY   = 57.4663

EPHEMERIS_TYPE = 0
CLASSIFICATION_TYPE = U
NORAD_CAT_ID   = 21876
ELEMENT_SET_NO = 999
REV_AT_EPOCH   = 69358
BSTAR          = .16128E-3
MEAN_MOTION_DOT = .173E-5
MEAN_MOTION_DDOT = 0

CCSDS_OMM_VERS = 2.0
CREATION_DATE  = 
ORIGINATOR     = 

OBJECT_NAME    = SL-8 R/B
OBJECT_ID      = 1992-020B
CENTER_NAME    = EARTH
REF_FRAME      = TEME
TIME_SYSTEM    = UTC
MEAN_ELEMENT_THEORY = SGP/SGP4

EPOCH          = 2025-11-14T18:06:32.331168
MEAN_MOTION    = 13.75522027
ECCENTRICITY   = .0027629
INCLINATION    = 82.9312
RA_OF_ASC_NODE = 239.0964
ARG_OF_PERICENTER = 258.6099
MEAN_ANOMALY   = 119.9819

EPHEMERIS_TYPE = 0
CLASSIFICATION_TYPE = U
NORAD_CAT_ID   = 21938
ELEMENT_SET_NO = 999
REV_AT_EPOCH   = 68533
BSTAR          = .96549E-4
MEAN_MOTION_DOT = .108E-5
MEAN_MOTION_DDOT = 0

CCSDS_OMM_VERS = 2.0
CREATION_DATE  = 
ORIGINATOR     = 

OBJECT_NAME    = USA 81
OBJECT_ID      = 1992-023A
CENTER_NAME    = EARTH
REF_FRAME      = TEME
TIME_SYSTEM    = UTC
MEAN_ELEMENT_THEORY = SGP/SGP4

EPOCH          = 2025-11-14T16:06:01.006272
MEAN_MOTION    = 14.32312566
ECCENTRICITY   = .0002583
INCLINATION    = 85.0108
RA_OF_ASC_NODE = 197.7607
ARG_OF_PERICENTER = 74.2858
MEAN_ANOMALY   = 285.8619

EPHEMERIS_TYPE = 0
CLASSIFICATION_TYPE = U
NORAD_CAT_ID   = 21949
ELEMENT_SET_NO = 999
REV_AT_EPOCH   = 7832
BSTAR          = .13031E-3
MEAN_MOTION_DOT = .371E-5
MEAN_MOTION_DDOT = 0

CCSDS_OMM_VERS = 2.0
CREATION_DATE  = 
ORIGINATOR     = 

OBJECT_NAME    = COSMOS 2219
OBJECT_ID      = 1992-076A
CENTER_NAME    = EARTH
REF_FRAME      = TEME
TIME_SYSTEM    = UTC
MEAN_ELEMENT_THEORY = SGP/SGP4

EPOCH          = 2025-11-14T20:28:50.035296
MEAN_MOTION    = 14.14067130
ECCENTRICITY   = .0017813
INCLINATION    = 71.0612
RA_OF_ASC_NODE = 258.1228
ARG_OF_PERICENTER = 7.5543
MEAN_ANOMALY   = 352.5844

EPHEMERIS_TYPE = 0
CLASSIFICATION_TYPE = U
NORAD_CAT_ID   = 22219
ELEMENT_SET_NO = 999
REV_AT_EPOCH   = 70214
BSTAR          = .78262E-4
MEAN_MOTION_DOT = .102E-5
MEAN_MOTION_DDOT = 0

CCSDS_OMM_VERS = 2.0
CREATION_DATE  = 
ORIGINATOR     = 

OBJECT_NAME    = SL-16 R/B
OBJECT_ID      = 1992-076B
CENTER_NAME    = EARTH
REF_FRAME      = TEME
TIME_SYSTEM    = UTC
MEAN_ELEMENT_THEORY = SGP/SGP4

EPOCH          = 2025-11-14T14:36:00.308160
MEAN_MOTION    = 14.16835802
ECCENTRICITY   = .0015301
INCLINATION    = 71.0004
RA_OF_ASC_NODE = 70.7870
ARG_OF_PERICENTER = 270.7639
MEAN_ANOMALY   = 100.6999

EPHEMERIS_TYPE = 0
CLASSIFICATION_TYPE = U
NORAD_CAT_ID   = 22220
ELEMENT_SET_NO = 999
REV_AT_EPOCH   = 70553
BSTAR          = -.14966E-4
MEAN_MOTION_DOT = -.78E-6
MEAN_MOTION_DDOT = 0

CCSDS_OMM_VERS = 2.0
CREATION_DATE  = 
ORIGINATOR     = 

OBJECT_NAME    = COSMOS 2221
OBJECT_ID      = 1992-080A
CENTER_NAME    = EARTH
REF_FRAME      = TEME
TIME_SYSTEM    = UTC
MEAN_ELEMENT_THEORY = SGP/SGP4

EPOCH          = 2025-11-14T15:39:41.820768
MEAN_MOTION    = 14.95609536
ECCENTRICITY   = .001378
INCLINATION    = 82.5070
RA_OF_ASC_NODE = 29.2019
ARG_OF_PERICENTER = 213.8148
MEAN_ANOMALY   = 146.2196

EPHEMERIS_TYPE = 0
CLASSIFICATION_TYPE = U
NORAD_CAT_ID   = 22236
ELEMENT_SET_NO = 999
REV_AT_EPOCH   = 76359
BSTAR          = .27586E-3
MEAN_MOTION_DOT = .3093E-4
MEAN_MOTION_DDOT = 0

